STARLINK-36482          
1 67309U 26002E   26063.15862260  .00028439  00000+0  10380-2 0  9991
2 67309  43.0012 356.4466 0003631 233.6294 126.4223 15.27606920 10237
STARLINK-36491          
1 67310U 26002F   26063.18048626  .00040230  00000+0  14623-2 0  9995
2 67310  42.9960 356.6149 0000343  21.6590 338.4276 15.27606885 10233
STARLINK-36495          
1 67311U 26002G   26063.14835023  .00039300  00000+0  14284-2 0  9996
2 67311  43.0028 356.3688 0001272 282.7838  77.2871 15.27618432 10390
STARLINK-36485          
1 67312U 26002H   26063.13419978  .00037686  00000+0  13699-2 0  9997
2 67312  43.0058 356.2629 0003160 240.4590 119.5947 15.27627663 10235
STARLINK-36445          
1 67313U 26002J   26062.86125690  .00028539  00000+0  10420-2 0  9998
2 67313  42.9973 358.5189 0000867 149.7914 210.2988 15.27599899 10343
STARLINK-36476          
1 67314U 26002K   26063.16633176  .00045808  00000+0  16614-2 0  9995
2 67314  43.0025 356.5034 0002722 250.5265 109.5293 15.27626786 10225
STARLINK-36463          
1 67315U 26002L   26063.14577367  .00031421  00000+0  11453-2 0  9995
2 67315  43.0022 356.3472 0002564 244.7929 115.2657 15.27613807 10298
STARLINK-36461          
1 67316U 26002M   26063.14191626  .00037237  00000+0  13543-2 0  9999
2 67316  43.0040 356.3242 0003044 240.9838 119.0709 15.27616707 10398
STARLINK-36450          
1 67317U 26002N   26062.20867362  .00034125  00000+0  12426-2 0  9995
2 67317  43.0046   2.2241 0001796 251.5620 108.5037 15.27612230 10248
STARLINK-36498          
1 67318U 26002P   26063.17148263  .00031978  00000+0  11655-2 0  9991
2 67318  42.9988 356.5404 0000877 261.1111  98.9641 15.27608792 10295
STARLINK-36470          
1 67319U 26002Q   26063.17531924  .00051967  00000+0  18816-2 0  9998
2 67319  43.0012 356.5695 0004859 241.4790 118.5573 15.27626210 10294
STARLINK-36500          
1 67320U 26002R   26062.21253050  .00030364  00000+0  11075-2 0  9993
2 67320  43.0029   2.2543 0001098 286.0823  73.9907 15.27607038 10141
STARLINK-36462          
1 67321U 26002S   26063.18176572  .00042795  00000+0  15531-2 0  9996
2 67321  43.0020 356.6207 0001417 254.7010 105.3685 15.27634366 10238
STARLINK-36434          
1 67322U 26002T   26063.18561300  .00058057  00000+0  20998-2 0  9995
2 67322  43.0070 356.6522 0002034 264.1499  95.9121 15.27625607 10233
STARLINK-36497          
1 67323U 26002U   26063.16377262  .00043601  00000+0  15830-2 0  9994
2 67323  43.0001 356.4813 0001148 313.1665  46.9090 15.27612838 10293
STARLINK-36471          
1 67324U 26002V   26063.14963580  .00041185  00000+0  14962-2 0  9997
2 67324  43.0025 356.3775 0001468 271.2329  88.8354 15.27616081 10238
