[{"OBJECT_NAME":"STARLINK-36482","OBJECT_ID":"2026-002E","EPOCH":"2026-03-04T03:48:24.992640","MEAN_MOTION":15.2760692,"ECCENTRICITY":0.0003631,"INCLINATION":43.0012,"RA_OF_ASC_NODE":356.4466,"ARG_OF_PERICENTER":233.6294,"MEAN_ANOMALY":126.4223,"EPHEMERIS_TYPE":0,"CLASSIFICATION_TYPE":"U","NORAD_CAT_ID":67309,"ELEMENT_SET_NO":999,"REV_AT_EPOCH":1023,"BSTAR":0.001038,"MEAN_MOTION_DOT":0.00028439,"MEAN_MOTION_DDOT":0},{"OBJECT_NAME":"STARLINK-36491","OBJECT_ID":"2026-002F","EPOCH":"2026-03-04T04:19:54.012864","MEAN_MOTION":15.27606885,"ECCENTRICITY":3.43e-5,"INCLINATION":42.996,"RA_OF_ASC_NODE":356.6149,"ARG_OF_PERICENTER":21.659,"MEAN_ANOMALY":338.4276,"EPHEMERIS_TYPE":0,"CLASSIFICATION_TYPE":"U","NORAD_CAT_ID":67310,"ELEMENT_SET_NO":999,"REV_AT_EPOCH":1023,"BSTAR":0.0014623,"MEAN_MOTION_DOT":0.0004023,"MEAN_MOTION_DDOT":0},{"OBJECT_NAME":"STARLINK-36495","OBJECT_ID":"2026-002G","EPOCH":"2026-03-04T03:33:37.459872","MEAN_MOTION":15.27618432,"ECCENTRICITY":0.0001272,"INCLINATION":43.0028,"RA_OF_ASC_NODE":356.3688,"ARG_OF_PERICENTER":282.7838,"MEAN_ANOMALY":77.2871,"EPHEMERIS_TYPE":0,"CLASSIFICATION_TYPE":"U","NORAD_CAT_ID":67311,"ELEMENT_SET_NO":999,"REV_AT_EPOCH":1039,"BSTAR":0.0014284,"MEAN_MOTION_DOT":0.000393,"MEAN_MOTION_DDOT":0},{"OBJECT_NAME":"STARLINK-36485","OBJECT_ID":"2026-002H","EPOCH":"2026-03-04T03:13:14.860992","MEAN_MOTION":15.27627663,"ECCENTRICITY":0.000316,"INCLINATION":43.0058,"RA_OF_ASC_NODE":356.2629,"ARG_OF_PERICENTER":240.459,"MEAN_ANOMALY":119.5947,"EPHEMERIS_TYPE":0,"CLASSIFICATION_TYPE":"U","NORAD_CAT_ID":67312,"ELEMENT_SET_NO":999,"REV_AT_EPOCH":1023,"BSTAR":0.0013699,"MEAN_MOTION_DOT":0.00037686,"MEAN_MOTION_DDOT":0},{"OBJECT_NAME":"STARLINK-36445","OBJECT_ID":"2026-002J","EPOCH":"2026-03-03T20:40:12.596160","MEAN_MOTION":15.27599899,"ECCENTRICITY":8.67e-5,"INCLINATION":42.9973,"RA_OF_ASC_NODE":358.5189,"ARG_OF_PERICENTER":149.7914,"MEAN_ANOMALY":210.2988,"EPHEMERIS_TYPE":0,"CLASSIFICATION_TYPE":"U","NORAD_CAT_ID":67313,"ELEMENT_SET_NO":999,"REV_AT_EPOCH":1034,"BSTAR":0.001042,"MEAN_MOTION_DOT":0.00028539,"MEAN_MOTION_DDOT":0},{"OBJECT_NAME":"STARLINK-36476","OBJECT_ID":"2026-002K","EPOCH":"2026-03-04T03:59:31.064064","MEAN_MOTION":15.27626786,"ECCENTRICITY":0.0002722,"INCLINATION":43.0025,"RA_OF_ASC_NODE":356.5034,"ARG_OF_PERICENTER":250.5265,"MEAN_ANOMALY":109.5293,"EPHEMERIS_TYPE":0,"CLASSIFICATION_TYPE":"U","NORAD_CAT_ID":67314,"ELEMENT_SET_NO":999,"REV_AT_EPOCH":1022,"BSTAR":0.0016614,"MEAN_MOTION_DOT":0.00045808,"MEAN_MOTION_DDOT":0},{"OBJECT_NAME":"STARLINK-36463","OBJECT_ID":"2026-002L","EPOCH":"2026-03-04T03:29:54.845088","MEAN_MOTION":15.27613807,"ECCENTRICITY":0.0002564,"INCLINATION":43.0022,"RA_OF_ASC_NODE":356.3472,"ARG_OF_PERICENTER":244.7929,"MEAN_ANOMALY":115.2657,"EPHEMERIS_TYPE":0,"CLASSIFICATION_TYPE":"U","NORAD_CAT_ID":67315,"ELEMENT_SET_NO":999,"REV_AT_EPOCH":1029,"BSTAR":0.0011453,"MEAN_MOTION_DOT":0.00031421,"MEAN_MOTION_DDOT":0},{"OBJECT_NAME":"STARLINK-36461","OBJECT_ID":"2026-002M","EPOCH":"2026-03-04T03:24:21.564864","MEAN_MOTION":15.27616707,"ECCENTRICITY":0.0003044,"INCLINATION":43.004,"RA_OF_ASC_NODE":356.3242,"ARG_OF_PERICENTER":240.9838,"MEAN_ANOMALY":119.0709,"EPHEMERIS_TYPE":0,"CLASSIFICATION_TYPE":"U","NORAD_CAT_ID":67316,"ELEMENT_SET_NO":999,"REV_AT_EPOCH":1039,"BSTAR":0.0013543,"MEAN_MOTION_DOT":0.00037237,"MEAN_MOTION_DDOT":0},{"OBJECT_NAME":"STARLINK-36450","OBJECT_ID":"2026-002N","EPOCH":"2026-03-03T05:00:29.400768","MEAN_MOTION":15.2761223,"ECCENTRICITY":0.00017964,"INCLINATION":43.0046,"RA_OF_ASC_NODE":2.2241,"ARG_OF_PERICENTER":251.562,"MEAN_ANOMALY":108.5037,"EPHEMERIS_TYPE":0,"CLASSIFICATION_TYPE":"U","NORAD_CAT_ID":67317,"ELEMENT_SET_NO":999,"REV_AT_EPOCH":1024,"BSTAR":0.0012426371,"MEAN_MOTION_DOT":0.00034125,"MEAN_MOTION_DDOT":0},{"OBJECT_NAME":"STARLINK-36498","OBJECT_ID":"2026-002P","EPOCH":"2026-03-04T04:06:56.099232","MEAN_MOTION":15.27608792,"ECCENTRICITY":8.77e-5,"INCLINATION":42.9988,"RA_OF_ASC_NODE":356.5404,"ARG_OF_PERICENTER":261.1111,"MEAN_ANOMALY":98.9641,"EPHEMERIS_TYPE":0,"CLASSIFICATION_TYPE":"U","NORAD_CAT_ID":67318,"ELEMENT_SET_NO":999,"REV_AT_EPOCH":1029,"BSTAR":0.0011655,"MEAN_MOTION_DOT":0.00031978,"MEAN_MOTION_DDOT":0},{"OBJECT_NAME":"STARLINK-36470","OBJECT_ID":"2026-002Q","EPOCH":"2026-03-04T04:12:27.582336","MEAN_MOTION":15.2762621,"ECCENTRICITY":0.0004859,"INCLINATION":43.0012,"RA_OF_ASC_NODE":356.5695,"ARG_OF_PERICENTER":241.479,"MEAN_ANOMALY":118.5573,"EPHEMERIS_TYPE":0,"CLASSIFICATION_TYPE":"U","NORAD_CAT_ID":67319,"ELEMENT_SET_NO":999,"REV_AT_EPOCH":1029,"BSTAR":0.0018816,"MEAN_MOTION_DOT":0.00051967,"MEAN_MOTION_DDOT":0},{"OBJECT_NAME":"STARLINK-36500","OBJECT_ID":"2026-002R","EPOCH":"2026-03-03T05:06:02.635200","MEAN_MOTION":15.27607038,"ECCENTRICITY":0.00010986,"INCLINATION":43.0029,"RA_OF_ASC_NODE":2.2543,"ARG_OF_PERICENTER":286.0823,"MEAN_ANOMALY":73.9907,"EPHEMERIS_TYPE":0,"CLASSIFICATION_TYPE":"U","NORAD_CAT_ID":67320,"ELEMENT_SET_NO":999,"REV_AT_EPOCH":1014,"BSTAR":0.0011074767,"MEAN_MOTION_DOT":0.00030364,"MEAN_MOTION_DDOT":0},{"OBJECT_NAME":"STARLINK-36462","OBJECT_ID":"2026-002S","EPOCH":"2026-03-04T04:21:44.558208","MEAN_MOTION":15.27634366,"ECCENTRICITY":0.0001417,"INCLINATION":43.002,"RA_OF_ASC_NODE":356.6207,"ARG_OF_PERICENTER":254.701,"MEAN_ANOMALY":105.3685,"EPHEMERIS_TYPE":0,"CLASSIFICATION_TYPE":"U","NORAD_CAT_ID":67321,"ELEMENT_SET_NO":999,"REV_AT_EPOCH":1023,"BSTAR":0.0015531,"MEAN_MOTION_DOT":0.00042795,"MEAN_MOTION_DDOT":0},{"OBJECT_NAME":"STARLINK-36434","OBJECT_ID":"2026-002T","EPOCH":"2026-03-04T04:27:16.963200","MEAN_MOTION":15.27625607,"ECCENTRICITY":0.0002034,"INCLINATION":43.007,"RA_OF_ASC_NODE":356.6522,"ARG_OF_PERICENTER":264.1499,"MEAN_ANOMALY":95.9121,"EPHEMERIS_TYPE":0,"CLASSIFICATION_TYPE":"U","NORAD_CAT_ID":67322,"ELEMENT_SET_NO":999,"REV_AT_EPOCH":1023,"BSTAR":0.0020998,"MEAN_MOTION_DOT":0.00058057,"MEAN_MOTION_DDOT":0},{"OBJECT_NAME":"STARLINK-36497","OBJECT_ID":"2026-002U","EPOCH":"2026-03-04T03:55:49.954368","MEAN_MOTION":15.27612838,"ECCENTRICITY":0.0001148,"INCLINATION":43.0001,"RA_OF_ASC_NODE":356.4813,"ARG_OF_PERICENTER":313.1665,"MEAN_ANOMALY":46.909,"EPHEMERIS_TYPE":0,"CLASSIFICATION_TYPE":"U","NORAD_CAT_ID":67323,"ELEMENT_SET_NO":999,"REV_AT_EPOCH":1029,"BSTAR":0.001583,"MEAN_MOTION_DOT":0.00043601,"MEAN_MOTION_DDOT":0},{"OBJECT_NAME":"STARLINK-36471","OBJECT_ID":"2026-002V","EPOCH":"2026-03-04T03:35:28.533120","MEAN_MOTION":15.27616081,"ECCENTRICITY":0.0001468,"INCLINATION":43.0025,"RA_OF_ASC_NODE":356.3775,"ARG_OF_PERICENTER":271.2329,"MEAN_ANOMALY":88.8354,"EPHEMERIS_TYPE":0,"CLASSIFICATION_TYPE":"U","NORAD_CAT_ID":67324,"ELEMENT_SET_NO":999,"REV_AT_EPOCH":1023,"BSTAR":0.0014962,"MEAN_MOTION_DOT":0.00041185,"MEAN_MOTION_DDOT":0}]
